{"type": "FeatureCollection", "features": [ {"type": "Feature", "properties": {"norad_id": 35744, "name": "IRIDIUM 33 DEB", "group": "iridium-33-debris", "lat": 77.43433977315539, "lon": -14.747816022981977, "alt_km": 661.6931438364709, "timestamp": "2025-12-05T22:40:48.935230+00:00", "meta": {"OBJECT_NAME": "IRIDIUM 33 DEB", "OBJECT_ID": "1997-051RX", "EPOCH": "2025-12-03T16:26:33.199008", "MEAN_MOTION": 14.70784036, "ECCENTRICITY": 0.00192992, "INCLINATION": 86.3279, "RA_OF_ASC_NODE": 329.5276, "ARG_OF_PERICENTER": 226.2399, "MEAN_ANOMALY": 133.722, "EPHEMERIS_TYPE": 0, "CLASSIFICATION_TYPE": "U", "NORAD_CAT_ID": 35744, "ELEMENT_SET_NO": 999, "REV_AT_EPOCH": 87198, "BSTAR": 0.0017711667, "MEAN_MOTION_DOT": 0.0001087, "MEAN_MOTION_DDOT": 0}, "tle": {"line1": "1 35744U 97051RX  25337.68510647  .00010870  00000+0  17712-2 0  9997", "line2": "2 35744  86.3279 329.5276 0019299 226.2399 133.7220 14.70784036871988"}}, "geometry": {"type": "Point", "coordinates": [-14.747816022981977, 77.43433977315539]}}, {"type": "Feature", "properties": {"norad_id": 35797, "name": "IRIDIUM 33 DEB", "group": "iridium-33-debris", "lat": -60.59618826581052, "lon": 159.6250929299894, "alt_km": 625.6510269021828, "timestamp": "2025-12-05T22:40:48.935240+00:00", "meta": {"OBJECT_NAME": "IRIDIUM 33 DEB", "OBJECT_ID": "1997-051SF", "EPOCH": "2025-12-04T06:43:04.165248", "MEAN_MOTION": 14.82394656, "ECCENTRICITY": 0.0011901, "INCLINATION": 86.3354, "RA_OF_ASC_NODE": 333.8596, "ARG_OF_PERICENTER": 177.769, "MEAN_ANOMALY": 182.3588, "EPHEMERIS_TYPE": 0, "CLASSIFICATION_TYPE": "U", "NORAD_CAT_ID": 35797, "ELEMENT_SET_NO": 999, "REV_AT_EPOCH": 87215, "BSTAR": 0.0041876, "MEAN_MOTION_DOT": 0.0003372, "MEAN_MOTION_DDOT": 0}, "tle": {"line1": "1 35797U 97051SF  25338.27990932  .00033720  00000+0  41876-2 0  9997", "line2": "2 35797  86.3354 333.8596 0011901 177.7690 182.3588 14.82394656872154"}}, "geometry": {"type": "Point", "coordinates": [159.6250929299894, -60.59618826581052]}}, {"type": "Feature", "properties": {"norad_id": 35806, "name": "IRIDIUM 33 DEB", "group": "iridium-33-debris", "lat": 83.75174581051932, "lon": 59.34658992918037, "alt_km": 683.2747131678443, "timestamp": "2025-12-05T22:40:48.935250+00:00", "meta": {"OBJECT_NAME": "IRIDIUM 33 DEB", "OBJECT_ID": "1997-051SQ", "EPOCH": "2025-12-04T10:02:10.629312", "MEAN_MOTION": 14.57216644, "ECCENTRICITY": 0.0016293, "INCLINATION": 86.3444, "RA_OF_ASC_NODE": 24.2921, "ARG_OF_PERICENTER": 100.3315, "MEAN_ANOMALY": 259.9731, "EPHEMERIS_TYPE": 0, "CLASSIFICATION_TYPE": "U", "NORAD_CAT_ID": 35806, "ELEMENT_SET_NO": 999, "REV_AT_EPOCH": 86203, "BSTAR": 0.0027811, "MEAN_MOTION_DOT": 0.00012613, "MEAN_MOTION_DDOT": 0}, "tle": {"line1": "1 35806U 97051SQ  25338.41817858  .00012613  00000+0  27811-2 0  9990", "line2": "2 35806  86.3444  24.2921 0016293 100.3315 259.9731 14.57216644862032"}}, "geometry": {"type": "Point", "coordinates": [59.34658992918037, 83.75174581051932]}}, {"type": "Feature", "properties": {"norad_id": 35809, "name": "IRIDIUM 33 DEB", "group": "iridium-33-debris", "lat": 2.1472517999074254, "lon": -21.418205616953507, "alt_km": 646.2194584186318, "timestamp": "2025-12-05T22:40:48.935261+00:00", "meta": {"OBJECT_NAME": "IRIDIUM 33 DEB", "OBJECT_ID": "1997-051ST", "EPOCH": "2025-12-01T17:44:51.390816", "MEAN_MOTION": 14.75313912, "ECCENTRICITY": 0.00099663, "INCLINATION": 86.3281, "RA_OF_ASC_NODE": 340.3571, "ARG_OF_PERICENTER": 290.7283, "MEAN_ANOMALY": 69.2867, "EPHEMERIS_TYPE": 0, "CLASSIFICATION_TYPE": "U", "NORAD_CAT_ID": 35809, "ELEMENT_SET_NO": 999, "REV_AT_EPOCH": 86645, "BSTAR": 0.0015973304, "MEAN_MOTION_DOT": 0.00010859, "MEAN_MOTION_DDOT": 0}, "tle": {"line1": "1 35809U 97051ST  25335.73948369  .00010859  00000+0  15973-2 0  9993", "line2": "2 35809  86.3281 340.3571 0009966 290.7283  69.2867 14.75313912866452"}}, "geometry": {"type": "Point", "coordinates": [-21.418205616953507, 2.1472517999074254]}}, {"type": "Feature", "properties": {"norad_id": 35846, "name": "IRIDIUM 33 DEB", "group": "iridium-33-debris", "lat": -37.63833539802327, "lon": -115.45841104885565, "alt_km": 743.8241415304865, "timestamp": "2025-12-05T22:40:48.935271+00:00", "meta": {"OBJECT_NAME": "IRIDIUM 33 DEB", "OBJECT_ID": "1997-051SW", "EPOCH": "2025-11-15T14:04:07.017312", "MEAN_MOTION": 14.42992821, "ECCENTRICITY": 0.00163082, "INCLINATION": 86.3745, "RA_OF_ASC_NODE": 70.4244, "ARG_OF_PERICENTER": 263.1259, "MEAN_ANOMALY": 96.8086, "EPHEMERIS_TYPE": 0, "CLASSIFICATION_TYPE": "U", "NORAD_CAT_ID": 35846, "ELEMENT_SET_NO": 999, "REV_AT_EPOCH": 70937, "BSTAR": 0.0011049939, "MEAN_MOTION_DOT": 3.722e-05, "MEAN_MOTION_DDOT": 0}, "tle": {"line1": "1 35846U 97051SW  25319.58619233  .00003722  00000+0  11050-2 0  9997", "line2": "2 35846  86.3745  70.4244 0016308 263.1259  96.8086 14.42992821709373"}}, "geometry": {"type": "Point", "coordinates": [-115.45841104885565, -37.63833539802327]}}, {"type": "Feature", "properties": {"norad_id": 35848, "name": "IRIDIUM 33 DEB", "group": "iridium-33-debris", "lat": -63.063957804561895, "lon": -153.68560040343675, "alt_km": 637.2987029970891, "timestamp": "2025-12-05T22:40:48.935281+00:00", "meta": {"OBJECT_NAME": "IRIDIUM 33 DEB", "OBJECT_ID": "1997-051SY", "EPOCH": "2025-12-01T10:21:45.439488", "MEAN_MOTION": 14.7824162, "ECCENTRICITY": 0.00067103, "INCLINATION": 86.3925, "RA_OF_ASC_NODE": 21.2088, "ARG_OF_PERICENTER": 240.9704, "MEAN_ANOMALY": 119.0844, "EPHEMERIS_TYPE": 0, "CLASSIFICATION_TYPE": "U", "NORAD_CAT_ID": 35848, "ELEMENT_SET_NO": 999, "REV_AT_EPOCH": 66523, "BSTAR": 0.0018930249, "MEAN_MOTION_DOT": 0.00013775, "MEAN_MOTION_DDOT": 0}, "tle": {"line1": "1 35848U 97051SY  25335.43177592  .00013775  00000+0  18930-2 0  9991", "line2": "2 35848  86.3925  21.2088 0006710 240.9704 119.0844 14.78241620665238"}}, "geometry": {"type": "Point", "coordinates": [-153.68560040343675, -63.063957804561895]}}, {"type": "Feature", "properties": {"norad_id": 35850, "name": "IRIDIUM 33 DEB", "group": "iridium-33-debris", "lat": -24.33079080288268, "lon": 168.99142384385846, "alt_km": 633.6950732943369, "timestamp": "2025-12-05T22:40:48.935291+00:00", "meta": {"OBJECT_NAME": "IRIDIUM 33 DEB", "OBJECT_ID": "1997-051TA", "EPOCH": "2025-12-05T07:08:26.215296", "MEAN_MOTION": 14.78560894, "ECCENTRICITY": 0.00082765, "INCLINATION": 86.3488, "RA_OF_ASC_NODE": 347.6313, "ARG_OF_PERICENTER": 214.509, "MEAN_ANOMALY": 145.5594, "EPHEMERIS_TYPE": 0, "CLASSIFICATION_TYPE": "U", "NORAD_CAT_ID": 35850, "ELEMENT_SET_NO": 999, "REV_AT_EPOCH": 71247, "BSTAR": 0.0029878545, "MEAN_MOTION_DOT": 0.00021921, "MEAN_MOTION_DDOT": 0}, "tle": {"line1": "1 35850U 97051TA  25339.29752564  .00021921  00000+0  29879-2 0  9996", "line2": "2 35850  86.3488 347.6313 0008276 214.5090 145.5594 14.78560894712477"}}, "geometry": {"type": "Point", "coordinates": [168.99142384385846, -24.33079080288268]}}, {"type": "Feature", "properties": {"norad_id": 35915, "name": "IRIDIUM 33 DEB", "group": "iridium-33-debris", "lat": 81.68382040369133, "lon": 140.1193262450326, "alt_km": 623.7359852523987, "timestamp": "2025-12-05T22:40:48.935302+00:00", "meta": {"OBJECT_NAME": "IRIDIUM 33 DEB", "OBJECT_ID": "1997-051TY", "EPOCH": "2025-12-03T18:19:42.417696", "MEAN_MOTION": 14.80347774, "ECCENTRICITY": 0.00098177, "INCLINATION": 86.3435, "RA_OF_ASC_NODE": 347.0587, "ARG_OF_PERICENTER": 222.269, "MEAN_ANOMALY": 137.7775, "EPHEMERIS_TYPE": 0, "CLASSIFICATION_TYPE": "U", "NORAD_CAT_ID": 35915, "ELEMENT_SET_NO": 999, "REV_AT_EPOCH": 7953, "BSTAR": 0.002591589, "MEAN_MOTION_DOT": 0.00019836, "MEAN_MOTION_DDOT": 0}, "tle": {"line1": "1 35915U 97051TY  25337.76368539  .00019836  00000+0  25916-2 0  9993", "line2": "2 35915  86.3435 347.0587 0009817 222.2690 137.7775 14.80347774 79532"}}, "geometry": {"type": "Point", "coordinates": [140.1193262450326, 81.68382040369133]}}, {"type": "Feature", "properties": {"norad_id": 35918, "name": "IRIDIUM 33 DEB", "group": "iridium-33-debris", "lat": -70.55573201545566, "lon": -90.99672844813641, "alt_km": 719.7318049613223, "timestamp": "2025-12-05T22:40:48.935312+00:00", "meta": {"OBJECT_NAME": "IRIDIUM 33 DEB", "OBJECT_ID": "1997-051UB", "EPOCH": "2025-11-30T01:41:55.281408", "MEAN_MOTION": 14.51050885, "ECCENTRICITY": 0.00264066, "INCLINATION": 86.4001, "RA_OF_ASC_NODE": 81.2516, "ARG_OF_PERICENTER": 211.3482, "MEAN_ANOMALY": 332.4953, "EPHEMERIS_TYPE": 0, "CLASSIFICATION_TYPE": "U", "NORAD_CAT_ID": 35918, "ELEMENT_SET_NO": 999, "REV_AT_EPOCH": 85023, "BSTAR": 0.0014523463, "MEAN_MOTION_DOT": 5.795e-05, "MEAN_MOTION_DDOT": 0}, "tle": {"line1": "1 35918U 97051UB  25334.07077872  .00005795  00000+0  14523-2 0  9995", "line2": "2 35918  86.4001  81.2516 0026406 211.3482 332.4953 14.51050885850233"}}, "geometry": {"type": "Point", "coordinates": [-90.99672844813641, -70.55573201545566]}}, {"type": "Feature", "properties": {"norad_id": 35929, "name": "IRIDIUM 33 DEB", "group": "iridium-33-debris", "lat": -19.012423213615524, "lon": 137.11985549686432, "alt_km": 578.5637817661591, "timestamp": "2025-12-05T22:40:48.935322+00:00", "meta": {"OBJECT_NAME": "IRIDIUM 33 DEB", "OBJECT_ID": "1997-051UN", "EPOCH": "2025-12-02T05:49:26.497920", "MEAN_MOTION": 15.01302222, "ECCENTRICITY": 0.0019551, "INCLINATION": 86.3366, "RA_OF_ASC_NODE": 317.6054, "ARG_OF_PERICENTER": 65.7136, "MEAN_ANOMALY": 294.6136, "EPHEMERIS_TYPE": 0, "CLASSIFICATION_TYPE": "U", "NORAD_CAT_ID": 35929, "ELEMENT_SET_NO": 999, "REV_AT_EPOCH": 87622, "BSTAR": 0.0029859, "MEAN_MOTION_DOT": 0.00038744, "MEAN_MOTION_DDOT": 0}, "tle": {"line1": "1 35929U 97051UN  25336.24266780  .00038744  00000+0  29859-2 0  9994", "line2": "2 35929  86.3366 317.6054 0019551  65.7136 294.6136 15.01302222876221"}}, "geometry": {"type": "Point", "coordinates": [137.11985549686432, -19.012423213615524]}}]}